[{"OBJECT_NAME":"YAOGAN-39 01A","OBJECT_ID":"2023-130A","EPOCH":"2026-03-07T01:49:05.647584","MEAN_MOTION":15.22847308,"ECCENTRICITY":0.00044592,"INCLINATION":35.005,"RA_OF_ASC_NODE":50.8898,"ARG_OF_PERICENTER":284.3505,"MEAN_ANOMALY":75.6714,"EPHEMERIS_TYPE":0,"CLASSIFICATION_TYPE":"U","NORAD_CAT_ID":57727,"ELEMENT_SET_NO":999,"REV_AT_EPOCH":14013,"BSTAR":0.00021092853,"MEAN_MOTION_DOT":5.026e-5,"MEAN_MOTION_DDOT":0},{"OBJECT_NAME":"STARLINK-30781","OBJECT_ID":"2023-162F","EPOCH":"2026-03-09T22:00:01.999584","MEAN_MOTION":15.23295152,"ECCENTRICITY":0.00010515,"INCLINATION":43.0003,"RA_OF_ASC_NODE":130.9672,"ARG_OF_PERICENTER":284.2671,"MEAN_ANOMALY":110.6046,"EPHEMERIS_TYPE":0,"CLASSIFICATION_TYPE":"U","NORAD_CAT_ID":58123,"ELEMENT_SET_NO":999,"REV_AT_EPOCH":578,"BSTAR":0.076250753,"MEAN_MOTION_DOT":0.02052153,"MEAN_MOTION_DDOT":0}]
